[{"OBJECT_NAME":"OBJECT V","OBJECT_ID":"2023-085V","EPOCH":"2026-03-09T21:44:00.165408","MEAN_MOTION":15.30745852,"ECCENTRICITY":0.00069081,"INCLINATION":97.4843,"RA_OF_ASC_NODE":179.3833,"ARG_OF_PERICENTER":71.0503,"MEAN_ANOMALY":289.1485,"EPHEMERIS_TYPE":0,"CLASSIFICATION_TYPE":"U","NORAD_CAT_ID":57023,"ELEMENT_SET_NO":999,"REV_AT_EPOCH":15149,"BSTAR":0.00067780507,"MEAN_MOTION_DOT":0.00020109,"MEAN_MOTION_DDOT":0},{"OBJECT_NAME":"STARLINK-35852","OBJECT_ID":"2025-283M","EPOCH":"2026-03-09T07:07:03.541728","MEAN_MOTION":15.30180185,"ECCENTRICITY":0.00013794,"INCLINATION":53.1614,"RA_OF_ASC_NODE":26.0141,"ARG_OF_PERICENTER":72.4217,"MEAN_ANOMALY":287.6935,"EPHEMERIS_TYPE":0,"CLASSIFICATION_TYPE":"U","NORAD_CAT_ID":66889,"ELEMENT_SET_NO":999,"REV_AT_EPOCH":1578,"BSTAR":0.0006888838,"MEAN_MOTION_DOT":0.00020086,"MEAN_MOTION_DDOT":0}]
